[{"OBJECT_NAME":"STARLINK-34903","OBJECT_ID":"2025-190X","EPOCH":"2026-03-09T14:23:05.934336","MEAN_MOTION":15.30187497,"ECCENTRICITY":0.0001453,"INCLINATION":53.1603,"RA_OF_ASC_NODE":168.4296,"ARG_OF_PERICENTER":60.7932,"MEAN_ANOMALY":299.3214,"EPHEMERIS_TYPE":0,"CLASSIFICATION_TYPE":"U","NORAD_CAT_ID":65372,"ELEMENT_SET_NO":999,"REV_AT_EPOCH":2974,"BSTAR":0.0014101,"MEAN_MOTION_DOT":0.00041621,"MEAN_MOTION_DDOT":0},{"OBJECT_NAME":"KUIPER-00175","OBJECT_ID":"2025-301C","EPOCH":"2026-03-09T23:30:37.840032","MEAN_MOTION":15.30996371,"ECCENTRICITY":0.00022792,"INCLINATION":51.8781,"RA_OF_ASC_NODE":63.6978,"ARG_OF_PERICENTER":50.5695,"MEAN_ANOMALY":309.549,"EPHEMERIS_TYPE":0,"CLASSIFICATION_TYPE":"U","NORAD_CAT_ID":67135,"ELEMENT_SET_NO":999,"REV_AT_EPOCH":1385,"BSTAR":0.00066732304,"MEAN_MOTION_DOT":0.00019968,"MEAN_MOTION_DDOT":0}]
