STARLINK-34903          
1 65372U 25190X   26068.59937424  .00041621  00000+0  14101-2 0  9997
2 65372  53.1603 168.4296 0001453  60.7932 299.3214 15.30187497 29746
KUIPER-00175            
1 67135U 25301C   26068.97960463  .00019968  00000+0  66732-3 0  9998
2 67135  51.8781  63.6978 0002279  50.5695 309.5490 15.30996371 13854
